{
  "type": "FeatureCollection",
  "features": [
    {
      "type": "Feature",
      "properties": {
        "norad_id": 51444,
        "name": "CSG-2",
        "group": "resource",
        "lat": -62.18396732557818,
        "lon": -29.95525109563347,
        "alt_km": 630.6826566613054,
        "timestamp": "2025-12-09T21:34:11.064879+00:00",
        "meta_object_name": "CSG-2",
        "meta_object_id": "2022-008A",
        "meta_epoch": "2025-12-09T13:59:41.667360",
        "meta_mean_motion": 14.82156888,
        "meta_eccentricity": 0.00014714,
        "meta_inclination": 97.8802,
        "meta_ra_of_asc_node": 164.9534,
        "meta_arg_of_pericenter": 83.6837,
        "meta_mean_anomaly": 276.4544,
        "meta_ephemeris_type": 0,
        "meta_classification_type": "U",
        "meta_norad_cat_id": 51444,
        "meta_element_set_no": 999,
        "meta_rev_at_epoch": 20850,
        "meta_bstar": 4.8544349e-05,
        "meta_mean_motion_dot": 3.34e-06,
        "meta_mean_motion_ddot": 0,
        "tle_line1": "1 51444U 22008A   25343.58312115  .00000334  00000+0  48544-4 0  9991",
        "tle_line2": "2 51444  97.8802 164.9534 0001471  83.6837 276.4544 14.82156888208502"
      },
      "geometry": {
        "type": "Point",
        "coordinates": [
          -29.95525109563347,
          -62.18396732557818
        ]
      }
    },
    {
      "type": "Feature",
      "properties": {
        "norad_id": 52912,
        "name": "GAOFEN-12 03",
        "group": "resource",
        "lat": -5.933100432334337,
        "lon": 50.49166981495132,
        "alt_km": 635.1414565478899,
        "timestamp": "2025-12-09T21:34:11.064888+00:00",
        "meta_object_name": "GAOFEN-12 03",
        "meta_object_id": "2022-069A",
        "meta_epoch": "2025-12-09T15:51:48.106944",
        "meta_mean_motion": 14.79598313,
        "meta_eccentricity": 0.00022585,
        "meta_inclination": 97.8481,
        "meta_ra_of_asc_node": 231.0808,
        "meta_arg_of_pericenter": 66.6986,
        "meta_mean_anomaly": 293.4463,
        "meta_ephemeris_type": 0,
        "meta_classification_type": "U",
        "meta_norad_cat_id": 52912,
        "meta_element_set_no": 999,
        "meta_rev_at_epoch": 18658,
        "meta_bstar": 0.00027392268,
        "meta_mean_motion_dot": 2.002e-05,
        "meta_mean_motion_ddot": 0,
        "tle_line1": "1 52912U 22069A   25343.66097346  .00002002  00000+0  27392-3 0  9995",
        "tle_line2": "2 52912  97.8481 231.0808 0002258  66.6986 293.4463 14.79598313186587"
      },
      "geometry": {
        "type": "Point",
        "coordinates": [
          50.49166981495132,
          -5.933100432334337
        ]
      }
    },
    {
      "type": "Feature",
      "properties": {
        "norad_id": 54754,
        "name": "SWOT",
        "group": "resource",
        "lat": -67.86844413117194,
        "lon": 143.5410154621949,
        "alt_km": 900.4357216559638,
        "timestamp": "2025-12-09T21:34:11.064899+00:00",
        "meta_object_name": "SWOT",
        "meta_object_id": "2022-173A",
        "meta_epoch": "2025-12-09T13:30:45.991584",
        "meta_mean_motion": 14.00174006,
        "meta_eccentricity": 3.33e-05,
        "meta_inclination": 77.6104,
        "meta_ra_of_asc_node": 291.278,
        "meta_arg_of_pericenter": 121.6166,
        "meta_mean_anomaly": 238.5019,
        "meta_ephemeris_type": 0,
        "meta_classification_type": "U",
        "meta_norad_cat_id": 54754,
        "meta_element_set_no": 999,
        "meta_rev_at_epoch": 15261,
        "meta_bstar": 6.4814123e-05,
        "meta_mean_motion_dot": 9.3e-07,
        "meta_mean_motion_ddot": 0,
        "tle_line1": "1 54754U 22173A   25343.56303231  .00000093  00000+0  64814-4 0  9998",
        "tle_line2": "2 54754  77.6104 291.2780 0000333 121.6166 238.5019 14.00174006152619"
      },
      "geometry": {
        "type": "Point",
        "coordinates": [
          143.5410154621949,
          -67.86844413117194
        ]
      }
    },
    {
      "type": "Feature",
      "properties": {
        "norad_id": 57654,
        "name": "GAOFEN-12 04",
        "group": "resource",
        "lat": -5.578305981052204,
        "lon": -99.52278891959891,
        "alt_km": 633.8087924892379,
        "timestamp": "2025-12-09T21:34:11.064908+00:00",
        "meta_object_name": "GAOFEN-12 04",
        "meta_object_id": "2023-123A",
        "meta_epoch": "2025-12-09T15:06:11.941632",
        "meta_mean_motion": 14.79686329,
        "meta_eccentricity": 0.00013607,
        "meta_inclination": 97.9118,
        "meta_ra_of_asc_node": 259.4337,
        "meta_arg_of_pericenter": 72.0438,
        "meta_mean_anomaly": 288.0922,
        "meta_ephemeris_type": 0,
        "meta_classification_type": "U",
        "meta_norad_cat_id": 57654,
        "meta_element_set_no": 999,
        "meta_rev_at_epoch": 12459,
        "meta_bstar": 0.0003271497,
        "meta_mean_motion_dot": 2.405e-05,
        "meta_mean_motion_ddot": 0,
        "tle_line1": "1 57654U 23123A   25343.62930488  .00002405  00000+0  32715-3 0  9996",
        "tle_line2": "2 57654  97.9118 259.4337 0001360  72.0438 288.0922 14.79686329124598"
      },
      "geometry": {
        "type": "Point",
        "coordinates": [
          -99.52278891959891,
          -5.578305981052204
        ]
      }
    },
    {
      "type": "Feature",
      "properties": {
        "norad_id": 59065,
        "name": "PARS 1",
        "group": "resource",
        "lat": 53.249472394267265,
        "lon": 144.8831293052358,
        "alt_km": 432.5063228229892,
        "timestamp": "2025-12-09T21:34:11.064919+00:00",
        "meta_object_name": "PARS 1",
        "meta_object_id": "2024-039Q",
        "meta_epoch": "2025-12-09T14:47:29.224608",
        "meta_mean_motion": 15.40863982,
        "meta_eccentricity": 0.00126911,
        "meta_inclination": 97.4638,
        "meta_ra_of_asc_node": 314.4832,
        "meta_arg_of_pericenter": 81.5852,
        "meta_mean_anomaly": 278.6832,
        "meta_ephemeris_type": 0,
        "meta_classification_type": "U",
        "meta_norad_cat_id": 59065,
        "meta_element_set_no": 999,
        "meta_rev_at_epoch": 9940,
        "meta_bstar": 0.00038034268,
        "meta_mean_motion_dot": 0.00015581,
        "meta_mean_motion_ddot": 0,
        "tle_line1": "1 59065U 24039Q   25343.61631047  .00015581  00000+0  38034-3 0  9998",
        "tle_line2": "2 59065  97.4638 314.4832 0012691  81.5852 278.6832 15.40863982 99401"
      },
      "geometry": {
        "type": "Point",
        "coordinates": [
          144.8831293052358,
          53.249472394267265
        ]
      }
    },
    {
      "type": "Feature",
      "properties": {
        "norad_id": 59371,
        "name": "RESURS-P 4",
        "group": "resource",
        "lat": -1.6391880271762391,
        "lon": -69.50423225938488,
        "alt_km": 472.3072187241087,
        "timestamp": "2025-12-09T21:34:11.064929+00:00",
        "meta_object_name": "RESURS-P 4",
        "meta_object_id": "2024-061A",
        "meta_epoch": "2025-12-09T15:18:24.306048",
        "meta_mean_motion": 15.32047343,
        "meta_eccentricity": 0.00017431,
        "meta_inclination": 97.2544,
        "meta_ra_of_asc_node": 290.0313,
        "meta_arg_of_pericenter": 52.9128,
        "meta_mean_anomaly": 307.2273,
        "meta_ephemeris_type": 0,
        "meta_classification_type": "U",
        "meta_norad_cat_id": 59371,
        "meta_element_set_no": 999,
        "meta_rev_at_epoch": 9473,
        "meta_bstar": 0.00019595523,
        "meta_mean_motion_dot": 5.987e-05,
        "meta_mean_motion_ddot": 0,
        "tle_line1": "1 59371U 24061A   25343.63778132  .00005987  00000+0  19596-3 0  9993",
        "tle_line2": "2 59371  97.2544 290.0313 0001743  52.9128 307.2273 15.32047343 94737"
      },
      "geometry": {
        "type": "Point",
        "coordinates": [
          -69.50423225938488,
          -1.6391880271762391
        ]
      }
    },
    {
      "type": "Feature",
      "properties": {
        "norad_id": 59625,
        "name": "LEGION 1",
        "group": "resource",
        "lat": 22.578722948046973,
        "lon": 55.41187760594663,
        "alt_km": 514.6055193644588,
        "timestamp": "2025-12-09T21:34:11.064939+00:00",
        "meta_object_name": "LEGION 1",
        "meta_object_id": "2024-081A",
        "meta_epoch": "2025-12-09T15:08:05.876448",
        "meta_mean_motion": 15.16431377,
        "meta_eccentricity": 0.0004233,
        "meta_inclination": 97.5211,
        "meta_ra_of_asc_node": 58.2954,
        "meta_arg_of_pericenter": 330.8327,
        "meta_mean_anomaly": 29.2669,
        "meta_ephemeris_type": 0,
        "meta_classification_type": "U",
        "meta_norad_cat_id": 59625,
        "meta_element_set_no": 999,
        "meta_rev_at_epoch": 8880,
        "meta_bstar": 0.00041047203,
        "meta_mean_motion_dot": 7.918e-05,
        "meta_mean_motion_ddot": 0,
        "tle_line1": "1 59625U 24081A   25343.63062357  .00007918  00000+0  41047-3 0  9994",
        "tle_line2": "2 59625  97.5211  58.2954 0004233 330.8327  29.2669 15.16431377 88801"
      },
      "geometry": {
        "type": "Point",
        "coordinates": [
          55.41187760594663,
          22.578722948046973
        ]
      }
    }
  ]
}